ONEWEB-0387             
1 49313U 21090AL  26124.88225722 -.00000040  00000+0 -12924-3 0  9999
2 49313  87.9140 283.0962 0001811 107.2490 252.8842 13.20771117224105
ONEWEB-0388             
1 49314U 21090AM  26125.04063661  .00000039  00000+0  64548-4 0  9997
2 49314  87.9145 313.5748 0001923  92.0911 268.0442 13.19725126220721
ONEWEB-0389             
1 50469U 21132A   26125.21885184  .00000111  00000+0  25154-3 0  9998
2 50469  87.9176  14.4088 0001840  92.5373 267.5970 13.17649218212420
ONEWEB-0390             
1 50470U 21132B   26125.22053250  .00000061  00000+0  12285-3 0  9997
2 50470  87.9174  14.4090 0001557  80.5922 279.5386 13.17649059212422
ONEWEB-0391             
1 50471U 21132C   26125.22222463  .00000060  00000+0  12206-3 0  9994
2 50471  87.9174  14.4180 0001699 108.9332 251.1984 13.17648983212425
ONEWEB-0392             
1 50472U 21132D   26125.25259525  .00000114  00000+0  26069-3 0  9999
2 50472  87.9183  14.3769 0001799  94.2812 265.8525 13.17650133212466
ONEWEB-0393             
1 50473U 21132E   26125.22811157  .00000089  00000+0  19647-3 0  9997
2 50473  87.9175  14.4023 0001783  86.7756 273.3580 13.17653117212457
ONEWEB-0394             
1 50474U 21132F   26125.07615078  .00000225  00000+0  53903-3 0  9990
2 50474  87.9189 344.0187 0001883  91.8946 268.2402 13.18685907215918
ONEWEB-0395             
1 50475U 21132G   26125.13563204 -.00000790  00000+0 -22644-2 0  9997
2 50475  87.8919  29.6302 0001617  83.7057 276.4255 13.11414664210074
ONEWEB-0396             
1 50476U 21132H   26125.06940207  .00001174  00000+0  29454-2 0  9993
2 50476  87.9190 344.0323 0001919  89.2209 270.9143 13.18680008215950
ONEWEB-0397             
1 50477U 21132J   26125.08458087  .00000513  00000+0  12678-2 0  9992
2 50477  87.9192 344.0291 0002022  86.8369 273.2994 13.18682457215931
ONEWEB-0398             
1 50478U 21132K   26125.25604608  .00000580  00000+0  16018-2 0  9990
2 50478  87.8929  29.5926 0001491  76.7864 283.3430 13.11417334209984
ONEWEB-0399             
1 50479U 21132L   26125.16617683  .00000115  00000+0  28772-3 0  9993
2 50479  87.8933  29.6209 0002063  92.2439 267.8925 13.11420255209962
ONEWEB-0400             
1 50480U 21132M   26125.06265018  .00000077  00000+0  16191-3 0  9994
2 50480  87.9190 344.0237 0001599  83.1546 276.9768 13.18686411215920
ONEWEB-0401             
1 50481U 21132N   26125.03230989  .00000916  00000+0  22912-2 0  9990
2 50481  87.9197 344.0267 0001963  80.5150 279.6204 13.18681238215925
ONEWEB-0402             
1 50482U 21132P   26125.07107030  .00000141  00000+0  32409-3 0  9998
2 50482  87.9190 344.0089 0002255  80.8993 279.2394 13.18684656215950
