[{"OBJECT_NAME":"ONEWEB-0387","OBJECT_ID":"2021-090AL","EPOCH":"2026-05-04T21:10:27.023808","MEAN_MOTION":13.20771117,"ECCENTRICITY":0.0001811,"INCLINATION":87.914,"RA_OF_ASC_NODE":283.0962,"ARG_OF_PERICENTER":107.249,"MEAN_ANOMALY":252.8842,"EPHEMERIS_TYPE":0,"CLASSIFICATION_TYPE":"U","NORAD_CAT_ID":49313,"ELEMENT_SET_NO":999,"REV_AT_EPOCH":22410,"BSTAR":-0.00012924,"MEAN_MOTION_DOT":-4e-07,"MEAN_MOTION_DDOT":0.0},{"OBJECT_NAME":"ONEWEB-0388","OBJECT_ID":"2021-090AM","EPOCH":"2026-05-05T00:58:31.003104","MEAN_MOTION":13.19725126,"ECCENTRICITY":0.0001923,"INCLINATION":87.9145,"RA_OF_ASC_NODE":313.5748,"ARG_OF_PERICENTER":92.0911,"MEAN_ANOMALY":268.0442,"EPHEMERIS_TYPE":0,"CLASSIFICATION_TYPE":"U","NORAD_CAT_ID":49314,"ELEMENT_SET_NO":999,"REV_AT_EPOCH":22072,"BSTAR":6.4548e-05,"MEAN_MOTION_DOT":3.9e-07,"MEAN_MOTION_DDOT":0.0},{"OBJECT_NAME":"ONEWEB-0389","OBJECT_ID":"2021-132A","EPOCH":"2026-05-05T05:15:08.798976","MEAN_MOTION":13.17649218,"ECCENTRICITY":0.000184,"INCLINATION":87.9176,"RA_OF_ASC_NODE":14.4088,"ARG_OF_PERICENTER":92.5373,"MEAN_ANOMALY":267.597,"EPHEMERIS_TYPE":0,"CLASSIFICATION_TYPE":"U","NORAD_CAT_ID":50469,"ELEMENT_SET_NO":999,"REV_AT_EPOCH":21242,"BSTAR":0.00025153999999999997,"MEAN_MOTION_DOT":1.11e-06,"MEAN_MOTION_DDOT":0.0},{"OBJECT_NAME":"ONEWEB-0390","OBJECT_ID":"2021-132B","EPOCH":"2026-05-05T05:17:34.008000","MEAN_MOTION":13.17649059,"ECCENTRICITY":0.0001557,"INCLINATION":87.9174,"RA_OF_ASC_NODE":14.409,"ARG_OF_PERICENTER":80.5922,"MEAN_ANOMALY":279.5386,"EPHEMERIS_TYPE":0,"CLASSIFICATION_TYPE":"U","NORAD_CAT_ID":50470,"ELEMENT_SET_NO":999,"REV_AT_EPOCH":21242,"BSTAR":0.00012285,"MEAN_MOTION_DOT":6.1e-07,"MEAN_MOTION_DDOT":0.0},{"OBJECT_NAME":"ONEWEB-0391","OBJECT_ID":"2021-132C","EPOCH":"2026-05-05T05:20:00.208032","MEAN_MOTION":13.17648983,"ECCENTRICITY":0.0001699,"INCLINATION":87.9174,"RA_OF_ASC_NODE":14.418,"ARG_OF_PERICENTER":108.9332,"MEAN_ANOMALY":251.1984,"EPHEMERIS_TYPE":0,"CLASSIFICATION_TYPE":"U","NORAD_CAT_ID":50471,"ELEMENT_SET_NO":999,"REV_AT_EPOCH":21242,"BSTAR":0.00012206000000000001,"MEAN_MOTION_DOT":6e-07,"MEAN_MOTION_DDOT":0.0},{"OBJECT_NAME":"ONEWEB-0392","OBJECT_ID":"2021-132D","EPOCH":"2026-05-05T06:03:44.229600","MEAN_MOTION":13.17650133,"ECCENTRICITY":0.0001799,"INCLINATION":87.9183,"RA_OF_ASC_NODE":14.3769,"ARG_OF_PERICENTER":94.2812,"MEAN_ANOMALY":265.8525,"EPHEMERIS_TYPE":0,"CLASSIFICATION_TYPE":"U","NORAD_CAT_ID":50472,"ELEMENT_SET_NO":999,"REV_AT_EPOCH":21246,"BSTAR":0.00026069,"MEAN_MOTION_DOT":1.14e-06,"MEAN_MOTION_DDOT":0.0},{"OBJECT_NAME":"ONEWEB-0393","OBJECT_ID":"2021-132E","EPOCH":"2026-05-05T05:28:28.839648","MEAN_MOTION":13.17653117,"ECCENTRICITY":0.0001783,"INCLINATION":87.9175,"RA_OF_ASC_NODE":14.4023,"ARG_OF_PERICENTER":86.7756,"MEAN_ANOMALY":273.358,"EPHEMERIS_TYPE":0,"CLASSIFICATION_TYPE":"U","NORAD_CAT_ID":50473,"ELEMENT_SET_NO":999,"REV_AT_EPOCH":21245,"BSTAR":0.00019647000000000002,"MEAN_MOTION_DOT":8.9e-07,"MEAN_MOTION_DDOT":0.0},{"OBJECT_NAME":"ONEWEB-0394","OBJECT_ID":"2021-132F","EPOCH":"2026-05-05T01:49:39.427392","MEAN_MOTION":13.18685907,"ECCENTRICITY":0.0001883,"INCLINATION":87.9189,"RA_OF_ASC_NODE":344.0187,"ARG_OF_PERICENTER":91.8946,"MEAN_ANOMALY":268.2402,"EPHEMERIS_TYPE":0,"CLASSIFICATION_TYPE":"U","NORAD_CAT_ID":50474,"ELEMENT_SET_NO":999,"REV_AT_EPOCH":21591,"BSTAR":0.00053903,"MEAN_MOTION_DOT":2.25e-06,"MEAN_MOTION_DDOT":0.0},{"OBJECT_NAME":"ONEWEB-0395","OBJECT_ID":"2021-132G","EPOCH":"2026-05-05T03:15:18.608256","MEAN_MOTION":13.11414664,"ECCENTRICITY":0.0001617,"INCLINATION":87.8919,"RA_OF_ASC_NODE":29.6302,"ARG_OF_PERICENTER":83.7057,"MEAN_ANOMALY":276.4255,"EPHEMERIS_TYPE":0,"CLASSIFICATION_TYPE":"U","NORAD_CAT_ID":50475,"ELEMENT_SET_NO":999,"REV_AT_EPOCH":21007,"BSTAR":-0.0022644,"MEAN_MOTION_DOT":-7.9e-06,"MEAN_MOTION_DDOT":0.0},{"OBJECT_NAME":"ONEWEB-0396","OBJECT_ID":"2021-132H","EPOCH":"2026-05-05T01:39:56.338848","MEAN_MOTION":13.18680008,"ECCENTRICITY":0.0001919,"INCLINATION":87.919,"RA_OF_ASC_NODE":344.0323,"ARG_OF_PERICENTER":89.2209,"MEAN_ANOMALY":270.9143,"EPHEMERIS_TYPE":0,"CLASSIFICATION_TYPE":"U","NORAD_CAT_ID":50476,"ELEMENT_SET_NO":999,"REV_AT_EPOCH":21595,"BSTAR":0.0029454000000000004,"MEAN_MOTION_DOT":1.174e-05,"MEAN_MOTION_DDOT":0.0},{"OBJECT_NAME":"ONEWEB-0397","OBJECT_ID":"2021-132J","EPOCH":"2026-05-05T02:01:47.787168","MEAN_MOTION":13.18682457,"ECCENTRICITY":0.0002022,"INCLINATION":87.9192,"RA_OF_ASC_NODE":344.0291,"ARG_OF_PERICENTER":86.8369,"MEAN_ANOMALY":273.2994,"EPHEMERIS_TYPE":0,"CLASSIFICATION_TYPE":"U","NORAD_CAT_ID":50477,"ELEMENT_SET_NO":999,"REV_AT_EPOCH":21593,"BSTAR":0.0012678000000000001,"MEAN_MOTION_DOT":5.13e-06,"MEAN_MOTION_DDOT":0.0},{"OBJECT_NAME":"ONEWEB-0398","OBJECT_ID":"2021-132K","EPOCH":"2026-05-05T06:08:42.381312","MEAN_MOTION":13.11417334,"ECCENTRICITY":0.0001491,"INCLINATION":87.8929,"RA_OF_ASC_NODE":29.5926,"ARG_OF_PERICENTER":76.7864,"MEAN_ANOMALY":283.343,"EPHEMERIS_TYPE":0,"CLASSIFICATION_TYPE":"U","NORAD_CAT_ID":50478,"ELEMENT_SET_NO":999,"REV_AT_EPOCH":20998,"BSTAR":0.0016018,"MEAN_MOTION_DOT":5.8e-06,"MEAN_MOTION_DDOT":0.0},{"OBJECT_NAME":"ONEWEB-0399","OBJECT_ID":"2021-132L","EPOCH":"2026-05-05T03:59:17.678112","MEAN_MOTION":13.11420255,"ECCENTRICITY":0.0002063,"INCLINATION":87.8933,"RA_OF_ASC_NODE":29.6209,"ARG_OF_PERICENTER":92.2439,"MEAN_ANOMALY":267.8925,"EPHEMERIS_TYPE":0,"CLASSIFICATION_TYPE":"U","NORAD_CAT_ID":50479,"ELEMENT_SET_NO":999,"REV_AT_EPOCH":20996,"BSTAR":0.00028772,"MEAN_MOTION_DOT":1.15e-06,"MEAN_MOTION_DDOT":0.0},{"OBJECT_NAME":"ONEWEB-0400","OBJECT_ID":"2021-132M","EPOCH":"2026-05-05T01:30:12.975552","MEAN_MOTION":13.18686411,"ECCENTRICITY":0.0001599,"INCLINATION":87.919,"RA_OF_ASC_NODE":344.0237,"ARG_OF_PERICENTER":83.1546,"MEAN_ANOMALY":276.9768,"EPHEMERIS_TYPE":0,"CLASSIFICATION_TYPE":"U","NORAD_CAT_ID":50480,"ELEMENT_SET_NO":999,"REV_AT_EPOCH":21592,"BSTAR":0.00016191,"MEAN_MOTION_DOT":7.7e-07,"MEAN_MOTION_DDOT":0.0},{"OBJECT_NAME":"ONEWEB-0401","OBJECT_ID":"2021-132N","EPOCH":"2026-05-05T00:46:31.574496","MEAN_MOTION":13.18681238,"ECCENTRICITY":0.0001963,"INCLINATION":87.9197,"RA_OF_ASC_NODE":344.0267,"ARG_OF_PERICENTER":80.515,"MEAN_ANOMALY":279.6204,"EPHEMERIS_TYPE":0,"CLASSIFICATION_TYPE":"U","NORAD_CAT_ID":50481,"ELEMENT_SET_NO":999,"REV_AT_EPOCH":21592,"BSTAR":0.0022911999999999997,"MEAN_MOTION_DOT":9.16e-06,"MEAN_MOTION_DDOT":0.0},{"OBJECT_NAME":"ONEWEB-0402","OBJECT_ID":"2021-132P","EPOCH":"2026-05-05T01:42:20.473920","MEAN_MOTION":13.18684656,"ECCENTRICITY":0.0002255,"INCLINATION":87.919,"RA_OF_ASC_NODE":344.0089,"ARG_OF_PERICENTER":80.8993,"MEAN_ANOMALY":279.2394,"EPHEMERIS_TYPE":0,"CLASSIFICATION_TYPE":"U","NORAD_CAT_ID":50482,"ELEMENT_SET_NO":999,"REV_AT_EPOCH":21595,"BSTAR":0.00032409,"MEAN_MOTION_DOT":1.41e-06,"MEAN_MOTION_DDOT":0.0}]